SL-3 R/B                
1 19046U 88032B   26083.21558844  .00004871  00000+0  22702-3 0  9992
2 19046  97.5215  66.4188 0025822 179.1759 180.9523 15.20065850 54315
SL-16 R/B               
1 19120U 88039B   26083.21375214 -.00000012  00000+0  17069-4 0  9995
2 19120  71.0159  37.8346 0023456 313.4389  46.4784 14.19617815960449
COSMOS 1953             
1 19210U 88050A   26083.22310559  .00006758  00000+0  24013-3 0  9998
2 19210  82.5081 143.6290 0012524  77.1818 283.0820 15.28753389 40008
SL-8 R/B                
1 19257U 88053B   26083.33412567  .00000321  00000+0  11233-3 0  9996
2 19257  74.0451  85.4695 0021522 262.8340 199.3922 14.38925560978700
COSMOS 1975             
1 19573U 88093A   26083.13041627  .00006970  00000+0  25138-3 0  9999
2 19573  82.5166 103.1838 0013238 116.7399 243.5197 15.28259600 21611
SL-14 R/B               
1 19574U 88093B   26083.22122615  .00000600  00000+0  66200-4 0  9997
2 19574  82.5333  28.4039 0020524 354.6351 125.4614 14.85673352  3176
SL-16 R/B               
1 19650U 88102B   26083.17315015 -.00000240  00000+0 -96819-4 0  9996
2 19650  70.9981 121.0233 0014929 339.3961  20.6558 14.16154936928946
INTERCOSMOS 24          
1 20261U 89080A   26083.25901716  .00000553  00000+0  16407-3 0  9999
2 20261  82.6013  94.9139 1186768 258.9709  87.5948 12.59577120668634
SL-14 R/B               
1 20262U 89080C   26083.19931452  .00000436  00000+0  12359-3 0  9995
2 20262  82.5965 163.8757 1230861 151.6004 215.8210 12.50508057661964
DELTA 1 R/B             
1 20323U 89089B   26083.17467592  .00000324  00000+0  88471-4 0  9994
2 20323  97.0695 288.3082 0070666  77.1246 283.7835 14.50674607897832
ARIANE 40 R/B           
1 20443U 90005H   26083.12865449  .00000268  00000+0  98764-4 0  9998
2 20443  98.3053 143.3578 0010747 155.6674 204.5024 14.39879583894888
DELTA 2 R/B(1)          
1 20453U 90008B   26082.29022841  .00073697  00000+0  82029-3 0  9992
2 20453  35.6034  85.4758 0079944  25.1791 335.2813 15.57716328928258
