CCSDS_OMM_VERS = 2.0
CREATION_DATE  = 
ORIGINATOR     = 

OBJECT_NAME    = SL-3 R/B
OBJECT_ID      = 1988-032B
CENTER_NAME    = EARTH
REF_FRAME      = TEME
TIME_SYSTEM    = UTC
MEAN_ELEMENT_THEORY = SGP/SGP4

EPOCH          = 2026-03-24T05:10:26.841216
MEAN_MOTION    = 15.20065850
ECCENTRICITY   = .00258225
INCLINATION    = 97.5215
RA_OF_ASC_NODE = 66.4188
ARG_OF_PERICENTER = 179.1759
MEAN_ANOMALY   = 180.9523

EPHEMERIS_TYPE = 0
CLASSIFICATION_TYPE = U
NORAD_CAT_ID   = 19046
ELEMENT_SET_NO = 999
REV_AT_EPOCH   = 5431
BSTAR          = .22702108E-3
MEAN_MOTION_DOT = .4871E-4
MEAN_MOTION_DDOT = 0

CCSDS_OMM_VERS = 2.0
CREATION_DATE  = 
ORIGINATOR     = 

OBJECT_NAME    = SL-16 R/B
OBJECT_ID      = 1988-039B
CENTER_NAME    = EARTH
REF_FRAME      = TEME
TIME_SYSTEM    = UTC
MEAN_ELEMENT_THEORY = SGP/SGP4

EPOCH          = 2026-03-24T05:07:48.184896
MEAN_MOTION    = 14.19617815
ECCENTRICITY   = .00234567
INCLINATION    = 71.0159
RA_OF_ASC_NODE = 37.8346
ARG_OF_PERICENTER = 313.4389
MEAN_ANOMALY   = 46.4784

EPHEMERIS_TYPE = 0
CLASSIFICATION_TYPE = U
NORAD_CAT_ID   = 19120
ELEMENT_SET_NO = 999
REV_AT_EPOCH   = 96044
BSTAR          = .17068891E-4
MEAN_MOTION_DOT = -.12E-6
MEAN_MOTION_DDOT = 0

CCSDS_OMM_VERS = 2.0
CREATION_DATE  = 
ORIGINATOR     = 

OBJECT_NAME    = COSMOS 1953
OBJECT_ID      = 1988-050A
CENTER_NAME    = EARTH
REF_FRAME      = TEME
TIME_SYSTEM    = UTC
MEAN_ELEMENT_THEORY = SGP/SGP4

EPOCH          = 2026-03-24T05:21:16.322976
MEAN_MOTION    = 15.28753389
ECCENTRICITY   = .00125248
INCLINATION    = 82.5081
RA_OF_ASC_NODE = 143.6290
ARG_OF_PERICENTER = 77.1818
MEAN_ANOMALY   = 283.0820

EPHEMERIS_TYPE = 0
CLASSIFICATION_TYPE = U
NORAD_CAT_ID   = 19210
ELEMENT_SET_NO = 999
REV_AT_EPOCH   = 4000
BSTAR          = .24012654E-3
MEAN_MOTION_DOT = .6758E-4
MEAN_MOTION_DDOT = 0

CCSDS_OMM_VERS = 2.0
CREATION_DATE  = 
ORIGINATOR     = 

OBJECT_NAME    = SL-8 R/B
OBJECT_ID      = 1988-053B
CENTER_NAME    = EARTH
REF_FRAME      = TEME
TIME_SYSTEM    = UTC
MEAN_ELEMENT_THEORY = SGP/SGP4

EPOCH          = 2026-03-24T08:01:08.457888
MEAN_MOTION    = 14.38925560
ECCENTRICITY   = .00215222
INCLINATION    = 74.0451
RA_OF_ASC_NODE = 85.4695
ARG_OF_PERICENTER = 262.8340
MEAN_ANOMALY   = 199.3922

EPHEMERIS_TYPE = 0
CLASSIFICATION_TYPE = U
NORAD_CAT_ID   = 19257
ELEMENT_SET_NO = 999
REV_AT_EPOCH   = 97870
BSTAR          = .11232828E-3
MEAN_MOTION_DOT = .321E-5
MEAN_MOTION_DDOT = 0

CCSDS_OMM_VERS = 2.0
CREATION_DATE  = 
ORIGINATOR     = 

OBJECT_NAME    = COSMOS 1975
OBJECT_ID      = 1988-093A
CENTER_NAME    = EARTH
REF_FRAME      = TEME
TIME_SYSTEM    = UTC
MEAN_ELEMENT_THEORY = SGP/SGP4

EPOCH          = 2026-03-24T03:07:47.965728
MEAN_MOTION    = 15.28259600
ECCENTRICITY   = .00132385
INCLINATION    = 82.5166
RA_OF_ASC_NODE = 103.1838
ARG_OF_PERICENTER = 116.7399
MEAN_ANOMALY   = 243.5197

EPHEMERIS_TYPE = 0
CLASSIFICATION_TYPE = U
NORAD_CAT_ID   = 19573
ELEMENT_SET_NO = 999
REV_AT_EPOCH   = 2161
BSTAR          = .25138211E-3
MEAN_MOTION_DOT = .697E-4
MEAN_MOTION_DDOT = 0

CCSDS_OMM_VERS = 2.0
CREATION_DATE  = 
ORIGINATOR     = 

OBJECT_NAME    = SL-14 R/B
OBJECT_ID      = 1988-093B
CENTER_NAME    = EARTH
REF_FRAME      = TEME
TIME_SYSTEM    = UTC
MEAN_ELEMENT_THEORY = SGP/SGP4

EPOCH          = 2026-03-24T05:18:33.939360
MEAN_MOTION    = 14.85673352
ECCENTRICITY   = .00205246
INCLINATION    = 82.5333
RA_OF_ASC_NODE = 28.4039
ARG_OF_PERICENTER = 354.6351
MEAN_ANOMALY   = 125.4614

EPHEMERIS_TYPE = 0
CLASSIFICATION_TYPE = U
NORAD_CAT_ID   = 19574
ELEMENT_SET_NO = 999
REV_AT_EPOCH   = 317
BSTAR          = .66199949E-4
MEAN_MOTION_DOT = .6E-5
MEAN_MOTION_DDOT = 0

CCSDS_OMM_VERS = 2.0
CREATION_DATE  = 
ORIGINATOR     = 

OBJECT_NAME    = SL-16 R/B
OBJECT_ID      = 1988-102B
CENTER_NAME    = EARTH
REF_FRAME      = TEME
TIME_SYSTEM    = UTC
MEAN_ELEMENT_THEORY = SGP/SGP4

EPOCH          = 2026-03-24T04:09:20.172960
MEAN_MOTION    = 14.16154936
ECCENTRICITY   = .00149294
INCLINATION    = 70.9981
RA_OF_ASC_NODE = 121.0233
ARG_OF_PERICENTER = 339.3961
MEAN_ANOMALY   = 20.6558

EPHEMERIS_TYPE = 0
CLASSIFICATION_TYPE = U
NORAD_CAT_ID   = 19650
ELEMENT_SET_NO = 999
REV_AT_EPOCH   = 92894
BSTAR          = -.96819022E-4
MEAN_MOTION_DOT = -.24E-5
MEAN_MOTION_DDOT = 0

CCSDS_OMM_VERS = 2.0
CREATION_DATE  = 
ORIGINATOR     = 

OBJECT_NAME    = INTERCOSMOS 24
OBJECT_ID      = 1989-080A
CENTER_NAME    = EARTH
REF_FRAME      = TEME
TIME_SYSTEM    = UTC
MEAN_ELEMENT_THEORY = SGP/SGP4

EPOCH          = 2026-03-24T06:12:59.082624
MEAN_MOTION    = 12.59577120
ECCENTRICITY   = .1186768
INCLINATION    = 82.6013
RA_OF_ASC_NODE = 94.9139
ARG_OF_PERICENTER = 258.9709
MEAN_ANOMALY   = 87.5948

EPHEMERIS_TYPE = 0
CLASSIFICATION_TYPE = U
NORAD_CAT_ID   = 20261
ELEMENT_SET_NO = 999
REV_AT_EPOCH   = 66863
BSTAR          = .16407328E-3
MEAN_MOTION_DOT = .553E-5
MEAN_MOTION_DDOT = 0

CCSDS_OMM_VERS = 2.0
CREATION_DATE  = 
ORIGINATOR     = 

OBJECT_NAME    = SL-14 R/B
OBJECT_ID      = 1989-080C
CENTER_NAME    = EARTH
REF_FRAME      = TEME
TIME_SYSTEM    = UTC
MEAN_ELEMENT_THEORY = SGP/SGP4

EPOCH          = 2026-03-24T04:47:00.774528
MEAN_MOTION    = 12.50508057
ECCENTRICITY   = .12308611
INCLINATION    = 82.5965
RA_OF_ASC_NODE = 163.8757
ARG_OF_PERICENTER = 151.6004
MEAN_ANOMALY   = 215.8210

EPHEMERIS_TYPE = 0
CLASSIFICATION_TYPE = U
NORAD_CAT_ID   = 20262
ELEMENT_SET_NO = 999
REV_AT_EPOCH   = 66196
BSTAR          = .1235861E-3
MEAN_MOTION_DOT = .436E-5
MEAN_MOTION_DDOT = 0

CCSDS_OMM_VERS = 2.0
CREATION_DATE  = 
ORIGINATOR     = 

OBJECT_NAME    = DELTA 1 R/B
OBJECT_ID      = 1989-089B
CENTER_NAME    = EARTH
REF_FRAME      = TEME
TIME_SYSTEM    = UTC
MEAN_ELEMENT_THEORY = SGP/SGP4

EPOCH          = 2026-03-24T04:11:31.999488
MEAN_MOTION    = 14.50674607
ECCENTRICITY   = .00706668
INCLINATION    = 97.0695
RA_OF_ASC_NODE = 288.3082
ARG_OF_PERICENTER = 77.1246
MEAN_ANOMALY   = 283.7835

EPHEMERIS_TYPE = 0
CLASSIFICATION_TYPE = U
NORAD_CAT_ID   = 20323
ELEMENT_SET_NO = 999
REV_AT_EPOCH   = 89783
BSTAR          = .88471178E-4
MEAN_MOTION_DOT = .324E-5
MEAN_MOTION_DDOT = 0

CCSDS_OMM_VERS = 2.0
CREATION_DATE  = 
ORIGINATOR     = 

OBJECT_NAME    = ARIANE 40 R/B
OBJECT_ID      = 1990-005H
CENTER_NAME    = EARTH
REF_FRAME      = TEME
TIME_SYSTEM    = UTC
MEAN_ELEMENT_THEORY = SGP/SGP4

EPOCH          = 2026-03-24T03:05:15.747936
MEAN_MOTION    = 14.39879583
ECCENTRICITY   = .00107477
INCLINATION    = 98.3053
RA_OF_ASC_NODE = 143.3578
ARG_OF_PERICENTER = 155.6674
MEAN_ANOMALY   = 204.5024

EPHEMERIS_TYPE = 0
CLASSIFICATION_TYPE = U
NORAD_CAT_ID   = 20443
ELEMENT_SET_NO = 999
REV_AT_EPOCH   = 89488
BSTAR          = .98764242E-4
MEAN_MOTION_DOT = .268E-5
MEAN_MOTION_DDOT = 0

CCSDS_OMM_VERS = 2.0
CREATION_DATE  = 
ORIGINATOR     = 

OBJECT_NAME    = DELTA 2 R/B(1)
OBJECT_ID      = 1990-008B
CENTER_NAME    = EARTH
REF_FRAME      = TEME
TIME_SYSTEM    = UTC
MEAN_ELEMENT_THEORY = SGP/SGP4

EPOCH          = 2026-03-23T06:57:55.734624
MEAN_MOTION    = 15.57716328
ECCENTRICITY   = .00799445
INCLINATION    = 35.6034
RA_OF_ASC_NODE = 85.4758
ARG_OF_PERICENTER = 25.1791
MEAN_ANOMALY   = 335.2813

EPHEMERIS_TYPE = 0
CLASSIFICATION_TYPE = U
NORAD_CAT_ID   = 20453
ELEMENT_SET_NO = 999
REV_AT_EPOCH   = 92825
BSTAR          = .82028965E-3
MEAN_MOTION_DOT = .73697E-3
MEAN_MOTION_DDOT = 0

